STARLINK-36197          
1 67205U 25304P   26012.91668981 -.02070183  00000+0 -45804-1 0  9997
2 67205  70.0001 320.2291 0003330 260.8988  25.8716 15.47082793  5447
STARLINK-36056          
1 67206U 25304Q   26012.92734368  .00052553  00000+0  85096-3 0  9998
2 67206  69.9999 320.1859 0003586 288.6598  71.4199 15.52529787  5377
STARLINK-36225          
1 67207U 25304R   26012.92699873  .00061031  00000+0  98621-3 0  9999
2 67207  69.9999 320.1843 0003775 276.0942  83.9815 15.52543847  5405
STARLINK-36265          
1 67208U 25304S   26012.95899434  .00037658  00000+0  85854-3 0  9990
2 67208  70.0001 320.3019 0003513 271.9187  88.1593 15.42731399  5405
STARLINK-36226          
1 67209U 25304T   26012.91668981 -.00002273  00000+0 -48497-4 0  9998
2 67209  70.0004 320.3634 0003529 265.6064 264.5882 15.42733514  5472
STARLINK-36173          
1 67210U 25304U   26012.91668981 -.00002439  00000+0 -52300-4 0  9992
2 67210  70.0004 320.3117 0002332 273.0911 303.0937 15.42726493  5473
STARLINK-36280          
1 67211U 25304V   26012.91668981  .00011083  00000+0  25606-3 0  9994
2 67211  70.0003 320.2863 0002842 259.9274 338.2496 15.42717255  5477
STARLINK-36213          
1 67212U 25304W   26012.91668981  .00003598  00000+0  85509-4 0  9996
2 67212  70.0001 320.2617 0002999 262.4684 357.7451 15.42715938  5473
STARLINK-36199          
1 67213U 25304X   26012.91668981 -.02080282  00000+0 -46953-1 0  9993
2 67213  70.0002 320.2146 0003174 261.1153  38.4452 15.46529483  5471
STARLINK-36203          
1 67214U 25304Y   26012.92541279 -.00337181  00000+0 -63102-2 0  9992
2 67214  69.9998 320.1781 0003901 246.0156 114.0621 15.49728816  5406
STARLINK-36221          
1 67215U 25304Z   26012.92432404 -.00250149  00000+0 -42619-2 0  9990
2 67215  69.9997 320.1744 0002690 274.7074  85.3806 15.52064561  5405
STARLINK-36212          
1 67216U 25304AA  26012.92391195  .00050215  00000+0  81351-3 0  9999
2 67216  69.9999 320.1727 0003632 277.3236  82.7538 15.52527595  5409
