CCSDS_OMM_VERS = 2.0
CREATION_DATE  = 
ORIGINATOR     = 

OBJECT_NAME    = STARLINK-36197
OBJECT_ID      = 2025-304P
CENTER_NAME    = EARTH
REF_FRAME      = TEME
TIME_SYSTEM    = UTC
MEAN_ELEMENT_THEORY = SGP/SGP4

EPOCH          = 2026-01-12T22:00:01.999584
MEAN_MOTION    = 15.47082793
ECCENTRICITY   = .000333
INCLINATION    = 70.0001
RA_OF_ASC_NODE = 320.2291
ARG_OF_PERICENTER = 260.8988
MEAN_ANOMALY   = 25.8716

EPHEMERIS_TYPE = 0
CLASSIFICATION_TYPE = U
NORAD_CAT_ID   = 67205
ELEMENT_SET_NO = 999
REV_AT_EPOCH   = 544
BSTAR          = -.45804303E-1
MEAN_MOTION_DOT = -.2070183E-1
MEAN_MOTION_DDOT = 0

CCSDS_OMM_VERS = 2.0
CREATION_DATE  = 
ORIGINATOR     = 

OBJECT_NAME    = STARLINK-36056
OBJECT_ID      = 2025-304Q
CENTER_NAME    = EARTH
REF_FRAME      = TEME
TIME_SYSTEM    = UTC
MEAN_ELEMENT_THEORY = SGP/SGP4

EPOCH          = 2026-01-12T22:15:22.493952
MEAN_MOTION    = 15.52529787
ECCENTRICITY   = .00035862
INCLINATION    = 69.9999
RA_OF_ASC_NODE = 320.1859
ARG_OF_PERICENTER = 288.6598
MEAN_ANOMALY   = 71.4199

EPHEMERIS_TYPE = 0
CLASSIFICATION_TYPE = U
NORAD_CAT_ID   = 67206
ELEMENT_SET_NO = 999
REV_AT_EPOCH   = 537
BSTAR          = .85095741E-3
MEAN_MOTION_DOT = .52553E-3
MEAN_MOTION_DDOT = 0

CCSDS_OMM_VERS = 2.0
CREATION_DATE  = 
ORIGINATOR     = 

OBJECT_NAME    = STARLINK-36225
OBJECT_ID      = 2025-304R
CENTER_NAME    = EARTH
REF_FRAME      = TEME
TIME_SYSTEM    = UTC
MEAN_ELEMENT_THEORY = SGP/SGP4

EPOCH          = 2026-01-12T22:14:52.690272
MEAN_MOTION    = 15.52543847
ECCENTRICITY   = .0003775
INCLINATION    = 69.9999
RA_OF_ASC_NODE = 320.1843
ARG_OF_PERICENTER = 276.0942
MEAN_ANOMALY   = 83.9815

EPHEMERIS_TYPE = 0
CLASSIFICATION_TYPE = U
NORAD_CAT_ID   = 67207
ELEMENT_SET_NO = 999
REV_AT_EPOCH   = 540
BSTAR          = .98621341E-3
MEAN_MOTION_DOT = .61031E-3
MEAN_MOTION_DDOT = 0

CCSDS_OMM_VERS = 2.0
CREATION_DATE  = 
ORIGINATOR     = 

OBJECT_NAME    = STARLINK-36265
OBJECT_ID      = 2025-304S
CENTER_NAME    = EARTH
REF_FRAME      = TEME
TIME_SYSTEM    = UTC
MEAN_ELEMENT_THEORY = SGP/SGP4

EPOCH          = 2026-01-12T23:00:57.110976
MEAN_MOTION    = 15.42731399
ECCENTRICITY   = .00035136
INCLINATION    = 70.0001
RA_OF_ASC_NODE = 320.3019
ARG_OF_PERICENTER = 271.9187
MEAN_ANOMALY   = 88.1593

EPHEMERIS_TYPE = 0
CLASSIFICATION_TYPE = U
NORAD_CAT_ID   = 67208
ELEMENT_SET_NO = 999
REV_AT_EPOCH   = 540
BSTAR          = .85854049E-3
MEAN_MOTION_DOT = .37658E-3
MEAN_MOTION_DDOT = 0

CCSDS_OMM_VERS = 2.0
CREATION_DATE  = 
ORIGINATOR     = 

OBJECT_NAME    = STARLINK-36226
OBJECT_ID      = 2025-304T
CENTER_NAME    = EARTH
REF_FRAME      = TEME
TIME_SYSTEM    = UTC
MEAN_ELEMENT_THEORY = SGP/SGP4

EPOCH          = 2026-01-12T22:00:01.999584
MEAN_MOTION    = 15.42733514
ECCENTRICITY   = .00035294
INCLINATION    = 70.0004
RA_OF_ASC_NODE = 320.3634
ARG_OF_PERICENTER = 265.6064
MEAN_ANOMALY   = 264.5882

EPHEMERIS_TYPE = 0
CLASSIFICATION_TYPE = U
NORAD_CAT_ID   = 67209
ELEMENT_SET_NO = 999
REV_AT_EPOCH   = 547
BSTAR          = -.4849719E-4
MEAN_MOTION_DOT = -.2273E-4
MEAN_MOTION_DDOT = 0

CCSDS_OMM_VERS = 2.0
CREATION_DATE  = 
ORIGINATOR     = 

OBJECT_NAME    = STARLINK-36173
OBJECT_ID      = 2025-304U
CENTER_NAME    = EARTH
REF_FRAME      = TEME
TIME_SYSTEM    = UTC
MEAN_ELEMENT_THEORY = SGP/SGP4

EPOCH          = 2026-01-12T22:00:01.999584
MEAN_MOTION    = 15.42726493
ECCENTRICITY   = .00023323
INCLINATION    = 70.0004
RA_OF_ASC_NODE = 320.3117
ARG_OF_PERICENTER = 273.0911
MEAN_ANOMALY   = 303.0937

EPHEMERIS_TYPE = 0
CLASSIFICATION_TYPE = U
NORAD_CAT_ID   = 67210
ELEMENT_SET_NO = 999
REV_AT_EPOCH   = 547
BSTAR          = -.52300451E-4
MEAN_MOTION_DOT = -.2439E-4
MEAN_MOTION_DDOT = 0

CCSDS_OMM_VERS = 2.0
CREATION_DATE  = 
ORIGINATOR     = 

OBJECT_NAME    = STARLINK-36280
OBJECT_ID      = 2025-304V
CENTER_NAME    = EARTH
REF_FRAME      = TEME
TIME_SYSTEM    = UTC
MEAN_ELEMENT_THEORY = SGP/SGP4

EPOCH          = 2026-01-12T22:00:01.999584
MEAN_MOTION    = 15.42717255
ECCENTRICITY   = .00028425
INCLINATION    = 70.0003
RA_OF_ASC_NODE = 320.2863
ARG_OF_PERICENTER = 259.9274
MEAN_ANOMALY   = 338.2496

EPHEMERIS_TYPE = 0
CLASSIFICATION_TYPE = U
NORAD_CAT_ID   = 67211
ELEMENT_SET_NO = 999
REV_AT_EPOCH   = 547
BSTAR          = .25606161E-3
MEAN_MOTION_DOT = .11083E-3
MEAN_MOTION_DDOT = 0

CCSDS_OMM_VERS = 2.0
CREATION_DATE  = 
ORIGINATOR     = 

OBJECT_NAME    = STARLINK-36213
OBJECT_ID      = 2025-304W
CENTER_NAME    = EARTH
REF_FRAME      = TEME
TIME_SYSTEM    = UTC
MEAN_ELEMENT_THEORY = SGP/SGP4

EPOCH          = 2026-01-12T22:00:01.999584
MEAN_MOTION    = 15.42715938
ECCENTRICITY   = .00029993
INCLINATION    = 70.0001
RA_OF_ASC_NODE = 320.2617
ARG_OF_PERICENTER = 262.4684
MEAN_ANOMALY   = 357.7451

EPHEMERIS_TYPE = 0
CLASSIFICATION_TYPE = U
NORAD_CAT_ID   = 67212
ELEMENT_SET_NO = 999
REV_AT_EPOCH   = 547
BSTAR          = .85509373E-4
MEAN_MOTION_DOT = .3598E-4
MEAN_MOTION_DDOT = 0

CCSDS_OMM_VERS = 2.0
CREATION_DATE  = 
ORIGINATOR     = 

OBJECT_NAME    = STARLINK-36199
OBJECT_ID      = 2025-304X
CENTER_NAME    = EARTH
REF_FRAME      = TEME
TIME_SYSTEM    = UTC
MEAN_ELEMENT_THEORY = SGP/SGP4

EPOCH          = 2026-01-12T22:00:01.999584
MEAN_MOTION    = 15.46529483
ECCENTRICITY   = .00031747
INCLINATION    = 70.0002
RA_OF_ASC_NODE = 320.2146
ARG_OF_PERICENTER = 261.1153
MEAN_ANOMALY   = 38.4452

EPHEMERIS_TYPE = 0
CLASSIFICATION_TYPE = U
NORAD_CAT_ID   = 67213
ELEMENT_SET_NO = 999
REV_AT_EPOCH   = 547
BSTAR          = -.46953337E-1
MEAN_MOTION_DOT = -.2080282E-1
MEAN_MOTION_DDOT = 0

CCSDS_OMM_VERS = 2.0
CREATION_DATE  = 
ORIGINATOR     = 

OBJECT_NAME    = STARLINK-36203
OBJECT_ID      = 2025-304Y
CENTER_NAME    = EARTH
REF_FRAME      = TEME
TIME_SYSTEM    = UTC
MEAN_ELEMENT_THEORY = SGP/SGP4

EPOCH          = 2026-01-12T22:12:35.665056
MEAN_MOTION    = 15.49728816
ECCENTRICITY   = .00039012
INCLINATION    = 69.9998
RA_OF_ASC_NODE = 320.1781
ARG_OF_PERICENTER = 246.0156
MEAN_ANOMALY   = 114.0621

EPHEMERIS_TYPE = 0
CLASSIFICATION_TYPE = U
NORAD_CAT_ID   = 67214
ELEMENT_SET_NO = 999
REV_AT_EPOCH   = 540
BSTAR          = -.63102127E-2
MEAN_MOTION_DOT = -.337181E-2
MEAN_MOTION_DDOT = 0

CCSDS_OMM_VERS = 2.0
CREATION_DATE  = 
ORIGINATOR     = 

OBJECT_NAME    = STARLINK-36221
OBJECT_ID      = 2025-304Z
CENTER_NAME    = EARTH
REF_FRAME      = TEME
TIME_SYSTEM    = UTC
MEAN_ELEMENT_THEORY = SGP/SGP4

EPOCH          = 2026-01-12T22:11:01.597056
MEAN_MOTION    = 15.52064561
ECCENTRICITY   = .00026904
INCLINATION    = 69.9997
RA_OF_ASC_NODE = 320.1744
ARG_OF_PERICENTER = 274.7074
MEAN_ANOMALY   = 85.3806

EPHEMERIS_TYPE = 0
CLASSIFICATION_TYPE = U
NORAD_CAT_ID   = 67215
ELEMENT_SET_NO = 999
REV_AT_EPOCH   = 540
BSTAR          = -.42619221E-2
MEAN_MOTION_DOT = -.250149E-2
MEAN_MOTION_DDOT = 0

CCSDS_OMM_VERS = 2.0
CREATION_DATE  = 
ORIGINATOR     = 

OBJECT_NAME    = STARLINK-36212
OBJECT_ID      = 2025-304AA
CENTER_NAME    = EARTH
REF_FRAME      = TEME
TIME_SYSTEM    = UTC
MEAN_ELEMENT_THEORY = SGP/SGP4

EPOCH          = 2026-01-12T22:10:25.992480
MEAN_MOTION    = 15.52527595
ECCENTRICITY   = .00036321
INCLINATION    = 69.9999
RA_OF_ASC_NODE = 320.1727
ARG_OF_PERICENTER = 277.3236
MEAN_ANOMALY   = 82.7538

EPHEMERIS_TYPE = 0
CLASSIFICATION_TYPE = U
NORAD_CAT_ID   = 67216
ELEMENT_SET_NO = 999
REV_AT_EPOCH   = 540
BSTAR          = .8135102E-3
MEAN_MOTION_DOT = .50215E-3
MEAN_MOTION_DDOT = 0

